NORAD_CAT_ID,OBJECT_NAME,OBJECT_TYPE,EPOCH,MEAN_MOTION,ECCENTRICITY,INCLINATION,RA_OF_ASC_NODE,ARG_OF_PERICENTER,MEAN_ANOMALY,BSTAR,MEAN_MOTION_DOT,MEAN_MOTION_DDOT,TLE_LINE0,TLE_LINE1,TLE_LINE2,SEMIMAJOR_AXIS,PERIOD,APOGEE,PERIGEE,DECAYED
55633.0,STARLINK-5498,PAYLOAD,2024-02-07 12:37:41,14.9832652,0.0002763,70.0012,323.6047,272.9292,87.1551,-4.7874e-05,-6.64e-06,0.0,0 STARLINK-5498,1 55633U 23021F   24038.52617024 -.00000664  00000-0 -47874-4 0  9996,2 55633  70.0012 323.6047 0002763 272.9292  87.1551 14.98326520 54286,6950.204,96.107,573.989,570.148,0.0
55633.0,STARLINK-5498,PAYLOAD,2024-02-07 19:02:13,14.98323068,0.0002775,70.001,322.9313,272.1379,87.9462,-2.6611e-05,-4.1e-06,0.0,0 STARLINK-5498,1 55633U 23021F   24038.79321250 -.00000410  00000-0 -26611-4 0  9993,2 55633  70.0010 322.9313 0002775 272.1379  87.9462 14.98323068 54028,6950.214,96.107,574.008,570.151,0.0
55633.0,STARLINK-5498,PAYLOAD,2024-02-07 22:14:29,14.98322165,0.0002783,70.001,322.5947,272.2247,87.8593,-3.8072e-05,-5.47e-06,0.0,0 STARLINK-5498,1 55633U 23021F   24038.92673385 -.00000547  00000-0 -38072-4 0  9992,2 55633  70.0010 322.5947 0002783 272.2247  87.8593 14.98322165 54347,6950.217,96.108,574.016,570.148,0.0
55633.0,STARLINK-5498,PAYLOAD,2024-02-08 04:39:02,14.98322481,0.0002625,70.0013,321.9214,267.6543,92.4316,-9.4861e-06,-2.06e-06,0.0,0 STARLINK-5498,1 55633U 23021F   24039.19377432 -.00000206  00000-0 -94861-5 0  9997,2 55633  70.0013 321.9214 0002625 267.6543  92.4316 14.98322481 54382,6950.216,96.107,573.906,570.257,0.0
55633.0,STARLINK-5498,PAYLOAD,2024-02-08 19:04:14,14.98332634,0.0002848,70.0009,320.4065,273.8719,86.2114,4.1797e-05,4.06e-06,0.0,0 STARLINK-5498,1 55633U 23021F   24039.79460714  .00000406  00000-0  41797-4 0  9998,2 55633  70.0009 320.4065 0002848 273.8719  86.2114 14.98332634 54171,6950.185,96.107,574.029,570.07,0.0
55633.0,STARLINK-5498,PAYLOAD,2024-02-08 22:16:30,14.98333916,0.0002845,70.001,320.0695,272.952,87.1313,5.3601e-05,5.47e-06,0.0,0 STARLINK-5498,1 55633U 23021F   24039.92812574  .00000547  00000-0  53601-4 0  9991,2 55633  70.0010 320.0695 0002845 272.9520  87.1313 14.98333916 54495,6950.181,96.107,574.023,570.068,0.0
55633.0,STARLINK-5498,PAYLOAD,2024-02-09 04:41:01,14.98339985,0.0002788,70.001,319.3961,273.2161,86.8679,0.0001253,1.403e-05,0.0,0 STARLINK-5498,1 55633U 23021F   24040.19515934  .00001403  00000-0  12530-3 0  9999,2 55633  70.0010 319.3961 0002788 273.2161  86.8679 14.98339985 54238,6950.162,96.106,573.965,570.089,0.0
55633.0,STARLINK-5498,PAYLOAD,2024-02-09 19:06:15,14.98324397,0.0002568,70.002,317.883,268.4106,91.6758,0.00011173,1.24e-05,0.0,0 STARLINK-5498,1 55633U 23021F   24040.79600944  .00001240  00000-0  11173-3 0  9992,2 55633  70.0020 317.8830 0002568 268.4106  91.6758 14.98324397 54321,6950.21,96.107,573.86,570.29,0.0
55633.0,STARLINK-5498,PAYLOAD,2024-02-10 04:43:03,14.98326024,0.0002542,70.0015,316.872,264.6127,95.4742,0.00010045,1.106e-05,0.0,0 STARLINK-5498,1 55633U 23021F   24041.19656993  .00001106  00000-0  10045-3 0  9990,2 55633  70.0015 316.8720 0002542 264.6127  95.4742 14.98326024 54688,6950.205,96.107,573.837,570.303,0.0
55633.0,STARLINK-5498,PAYLOAD,2024-02-10 20:44:23,14.98335485,0.0002453,70.0016,315.1891,255.6592,104.4295,-8.0947e-06,-1.89e-06,0.0,0 STARLINK-5498,1 55633U 23021F   24041.86416610 -.00000189  00000-0 -80947-5 0  9996,2 55633  70.0016 315.1891 0002453 255.6592 104.4295 14.98335485 54480,6950.176,96.107,573.746,570.336,0.0
55633.0,STARLINK-5498,PAYLOAD,2024-02-10 22:20:32,14.98335328,0.0002465,70.0016,315.0207,255.2407,104.8479,-9.393e-06,-2.05e-06,0.0,0 STARLINK-5498,1 55633U 23021F   24041.93092598 -.00000205  00000-0 -93930-5 0  9994,2 55633  70.0016 315.0207 0002465 255.2407 104.8479 14.98335328 54792,6950.176,96.107,573.755,570.328,0.0
55633.0,STARLINK-5498,PAYLOAD,2024-02-11 03:08:56,14.98334974,0.0002469,70.0016,314.5158,255.4984,104.5901,-1.2227e-05,-2.39e-06,0.0,0 STARLINK-5498,1 55633U 23021F   24042.13120570 -.00000239  00000-0 -12227-4 0  9995,2 55633  70.0016 314.5158 0002469 255.4984 104.5901 14.98334974 54824,6950.178,96.107,573.759,570.327,0.0
55633.0,STARLINK-5498,PAYLOAD,2024-02-11 20:46:24,14.98330966,0.0002583,70.0011,312.6638,260.0342,100.0526,5.3658e-05,5.47e-06,0.0,0 STARLINK-5498,1 55633U 23021F   24042.86556471  .00000547  00000-0  53658-4 0  9991,2 55633  70.0011 312.6638 0002583 260.0342 100.0526 14.98330966 54638,6950.19,96.107,573.85,570.26,0.0
55633.0,STARLINK-5498,PAYLOAD,2024-02-11 22:22:32,14.98330987,0.000259,70.0011,312.4954,259.8322,100.2545,5.2297e-05,5.31e-06,0.0,0 STARLINK-5498,1 55633U 23021F   24042.93232466  .00000531  00000-0  52297-4 0  9995,2 55633  70.0011 312.4954 0002590 259.8322 100.2545 14.98330987 54949,6950.19,96.107,573.855,570.255,0.0
55633.0,STARLINK-5498,PAYLOAD,2024-02-12 03:10:56,14.98335404,0.0002534,70.0012,311.9906,255.3121,104.7757,0.0001021,1.126e-05,0.0,0 STARLINK-5498,1 55633U 23021F   24043.13259989  .00001126  00000-0  10210-3 0  9996,2 55633  70.0012 311.9906 0002534 255.3121 104.7757 14.98335404 54973,6950.176,96.107,573.802,570.28,0.0
55633.0,STARLINK-5498,PAYLOAD,2024-02-12 22:24:34,14.98324646,0.0002658,70.0028,309.9738,218.9648,141.132,-4.1088e-05,-5.83e-06,0.0,0 STARLINK-5498,1 55633U 23021F   24043.93372964 -.00000583  00000-0 -41088-4 0  9999,2 55633  70.0028 309.9738 0002658 218.9648 141.1320 14.98324646 55097,6950.209,96.107,573.922,570.227,0.0
55633.0,STARLINK-5498,PAYLOAD,2024-02-13 03:12:58,14.98325793,0.0002597,70.0019,309.4685,239.7063,120.3839,-4.5647e-05,-6.37e-06,0.0,0 STARLINK-5498,1 55633U 23021F   24044.13401027 -.00000637  00000-0 -45647-4 0  9990,2 55633  70.0019 309.4685 0002597 239.7063 120.3839 14.98325793 54825,6950.206,96.107,573.876,570.266,0.0
55633.0,STARLINK-5498,PAYLOAD,2024-02-13 11:13:38,14.98328826,0.0002715,70.0006,308.6229,264.9391,95.1459,-1.8673e-05,-3.16e-06,0.0,0 STARLINK-5498,1 55633U 23021F   24044.46780889 -.00000316  00000-0 -18673-4 0  9995,2 55633  70.0006 308.6229 0002715 264.9391  95.1459 14.98328826 55178,6950.197,96.107,573.948,570.175,0.0
55633.0,STARLINK-5498,PAYLOAD,2024-02-13 22:26:34,14.98331025,0.0002858,70.0,307.4448,265.921,94.1622,4.6686e-06,-3.7e-07,0.0,0 STARLINK-5498,1 55633U 23021F   24044.93512697 -.00000037  00000-0  46686-5 0  9992,2 55633  70.0000 307.4448 0002858 265.9210  94.1622 14.98331025 55245,6950.19,96.107,574.041,570.068,0.0
55633.0,STARLINK-5498,PAYLOAD,2024-02-14 03:14:58,14.98337423,0.0002798,70.0003,306.9398,268.6205,91.4633,0.00011332,1.26e-05,0.0,0 STARLINK-5498,1 55633U 23021F   24045.13539969  .00001260  00000-0  11332-3 0  9992,2 55633  70.0003 306.9398 0002798 268.6205  91.4633 14.98337423 54972,6950.17,96.107,573.98,570.09,0.0
55633.0,STARLINK-5498,PAYLOAD,2024-02-14 11:15:38,14.98337508,0.0002679,70.0003,306.0971,269.1639,90.9213,-3.1634e-05,-4.7e-06,0.0,0 STARLINK-5498,1 55633U 23021F   24045.46920126 -.00000470  00000-0 -31634-4 0  9999,2 55633  70.0003 306.0971 0002679 269.1639  90.9213 14.98337508 55327,6950.17,96.107,573.897,570.173,0.0
55633.0,STARLINK-5498,PAYLOAD,2024-02-14 17:40:11,14.9832649,0.0002517,70.0008,305.4244,259.3173,100.7703,0.00010205,1.125e-05,0.0,0 STARLINK-5498,1 55633U 23021F   24045.73624584  .00001125  00000-0  10205-3 0  9994,2 55633  70.0008 305.4244 0002517 259.3173 100.7703 14.98326490 55066,6950.204,96.107,573.818,570.319,0.0
55633.0,STARLINK-5498,PAYLOAD,2024-02-14 20:52:27,14.98325018,0.0002567,70.0002,305.0877,259.0057,101.0814,8.1411e-05,8.78e-06,0.0,0 STARLINK-5498,1 55633U 23021F   24045.86976765  .00000878  00000-0  81411-4 0  9991,2 55633  70.0002 305.0877 0002567 259.0057 101.0814 14.98325018 55388,6950.208,96.107,573.857,570.289,0.0
55633.0,STARLINK-5498,PAYLOAD,2024-02-15 03:17:00,14.98327931,0.0002697,70.0005,304.4154,268.6302,91.4548,5.3401e-05,5.44e-06,0.0,0 STARLINK-5498,1 55633U 23021F   24046.13680751  .00000544  00000-0  53401-4 0  9997,2 55633  70.0005 304.4154 0002697 268.6302  91.4548 14.98327931 55422,6950.199,96.107,573.939,570.19,0.0
55633.0,STARLINK-5498,PAYLOAD,2024-02-15 19:18:20,14.98328297,0.0002674,70.0007,302.7323,270.5997,89.4856,-1.3521e-05,-2.54e-06,0.0,0 STARLINK-5498,1 55633U 23021F   24046.80440966 -.00000254  00000-0 -13521-4 0  9992,2 55633  70.0007 302.7323 0002674 270.5997  89.4856 14.98328297 55223,6950.198,96.107,573.922,570.205,0.0
55633.0,STARLINK-5498,PAYLOAD,2024-02-15 22:30:37,14.98328588,0.0002639,70.0005,302.3956,270.8363,89.2493,-2.4126e-05,-3.81e-06,0.0,0 STARLINK-5498,1 55633U 23021F   24046.93792986 -.00000381  00000-0 -24126-4 0  9992,2 55633  70.0005 302.3956 0002639 270.8363  89.2493 14.98328588 55543,6950.197,96.107,573.896,570.228,0.0
55633.0,STARLINK-5498,PAYLOAD,2024-02-16 09:43:33,14.98334317,0.0002506,70.0004,301.2174,266.8057,93.2816,-5.4995e-05,-7.49e-06,0.0,0 STARLINK-5498,1 55633U 23021F   24047.40524638 -.00000749  00000-0 -54995-4 0  9997,2 55633  70.0004 301.2174 0002506 266.8057  93.2816 14.98334317 55619,6950.18,96.107,573.786,570.303,0.0
55633.0,STARLINK-5498,PAYLOAD,2024-02-16 19:20:21,14.98330194,0.0002658,70.0,300.2073,272.1567,87.9288,5.332e-05,5.43e-06,0.0,0 STARLINK-5498,1 55633U 23021F   24047.80580540  .00000543  00000-0  53320-4 0  9996,2 55633  70.0000 300.2073 0002658 272.1567  87.9288 14.98330194 55371,6950.192,96.107,573.905,570.21,0.0
55633.0,STARLINK-5498,PAYLOAD,2024-02-16 22:32:37,14.98329527,0.0002672,69.9999,299.8707,271.9874,88.0979,4.5425e-05,4.49e-06,0.0,0 STARLINK-5498,1 55633U 23021F   24047.93932603  .00000449  00000-0  45425-4 0  9993,2 55633  69.9999 299.8707 0002672 271.9874  88.0979 14.98329527 55698,6950.194,96.107,573.916,570.202,0.0
55633.0,STARLINK-5498,PAYLOAD,2024-02-17 09:45:34,14.98331048,0.0002646,69.9999,298.6929,269.1451,90.9405,5.0432e-05,5.09e-06,0.0,0 STARLINK-5498,1 55633U 23021F   24048.40664448  .00000509  00000-0  50432-4 0  9996,2 55633  69.9999 298.6929 0002646 269.1451  90.9405 14.98331048 55767,6950.19,96.107,573.894,570.216,0.0
